#aV2010  3 22  0  0   .00000000      96 DD+AD WGS84 FIT  NGA
## 1576  86400.00000000   900.00000000 55277  .0000000000000
+   31     1  2  3  4  5  6  7  8  9 10 11 12 13 14 15 16 17
+         18 19 20 21 22 23 24 26 27 28 29 30 31 32  0  0  0
+          0  0  0  0  0  0  0  0  0  0  0  0  0  0  0  0  0
+          0  0  0  0  0  0  0  0  0  0  0  0  0  0  0  0  0
+          0  0  0  0  0  0  0  0  0  0  0  0  0  0  0  0  0
++         0  0  0  0  0  0  0  0  0  0  0  0  0  0  0  0  0
++         0  0  0  0  0  0  0  0  0  0  0  0  0  0  0  0  0
++         0  0  0  0  0  0  0  0  0  0  0  0  0  0  0  0  0
++         0  0  0  0  0  0  0  0  0  0  0  0  0  0  0  0  0
++         0  0  0  0  0  0  0  0  0  0  0  0  0  0  0  0  0
%c cc cc ccc ccc cccc cccc cccc cccc ccccc ccccc ccccc ccccc
%c cc cc ccc ccc cccc cccc cccc cccc ccccc ccccc ccccc ccccc
%f  0.0000000  0.000000000  0.00000000000  0.000000000000000
%f  0.0000000  0.000000000  0.00000000000  0.000000000000000
%i    0    0    0    0      0      0      0      0         0
%i    0    0    0    0      0      0      0      0         0
/*      NGA, ST. LOUIS,MO.                                  
/*   EPHEMERIS COMPUTED FROM  3 DAYS OF DATA                
/* CCCCCCCCCCCCCCCCCCCCCCCCCCCCCCCCCCCCCCCCCCCCCCCCCCCCCCCCC
/* CCCCCCCCCCCCCCCCCCCCCCCCCCCCCCCCCCCCCCCCCCCCCCCCCCCCCCCCC
*  2010  3 22 23  0   .00000000                                                 
P  1  14227.739040 -15941.586722  15595.727479   -101.376814                    
V  1  -1943.780879  20041.936628  22239.288967      -.040368                    
P  2  11065.508769  21142.989080  12078.745511    239.011427                    
V  2 -13248.762686  -8034.522540  25655.405688       .038686                    
P  3  -5849.012466 -15032.791697 -21447.248384    531.736625                    
V  3  24154.697683 -11042.131534   1520.157628       .052306                    
P  4  -3966.980623  16350.160990  20304.313345     42.867371                    
V  4 -20488.478740 -16580.111112   9629.952701       .087744                    
P  5   3414.616133  23690.325224 -11442.233334     -2.950782                    
V  5  -5332.493325  13749.196922  27008.314537       .009815                    
P  6   -708.042845 -16224.549431 -20816.743949    683.399425                    
V  6  25433.591547  -9022.918993   6242.548700      -.078439                    
P  7 -19571.860399   -951.101491 -18012.875072      1.345014                    
V  7 -16106.861593 -16147.453914  18207.201336      -.004517                    
P  8 -11221.333184   9292.987693 -22236.770557      4.331638                    
V  8 -19784.726980 -19943.387848   1143.917379       .002533                    
P  9  20644.556111  16685.989435    655.358546    113.076849                    
V  9   -160.014445   2740.744760 -32140.443301       .021817                    
P 10  -2544.733068  25865.594198  -4643.469688    -38.474307                    
V 10  -4444.368286   4864.625624  31088.504336      -.008500                    
P 11 -24521.177159 -10016.693093   3495.236098    -52.123494                    
V 11  -1955.542799  -6377.308387 -29429.551827      -.021962                    
P 12  13019.875985   9125.587097  21355.446586   -135.554185                    
V 12  -6140.346768  26225.669203  -7338.449643       .045593                    
P 13 -25955.827076   4820.313309   2853.777751    305.894683                    
V 13   3215.487643  -2652.829850  32183.124252      -.002531                    
P 14  17489.053521 -14452.879197  13843.727438     24.819954                    
V 14  17132.011448  -3179.574355 -25326.164209       .040625                    
P 15  14260.928833  10047.288373 -20043.068295   -295.388047                    
V 15 -23677.800565   9469.352163 -11975.343565       .041037                    
P 16   1854.765197 -25681.738955  -5858.789440    -53.842202                    
V 16   4276.415632  -6756.912871  30982.615059      -.039212                    
P 17 -16919.801912  15201.164106  13632.685301    138.946496                    
V 17 -17158.368545   2852.729642 -24856.334764       .026817                    
P 18  15976.410419 -10519.855885 -18011.417695     56.947072                    
V 18  -3191.669255  23489.640442 -16689.163472       .025033                    
P 19 -15161.634578 -10229.120856 -19326.903908    -23.138060                    
V 19  23517.370698  -7077.049739 -14382.463560      -.024590                    
P 20 -14889.406601  -5263.837848  21219.921612     59.053299                    
V 20   5014.703878 -26893.237100  -3077.439967      -.006849                    
P 21  17824.393186  -3115.730417 -19317.646134    -48.454616                    
V 21  17705.911713  17871.462621  12612.118145      -.025288                    
P 22  12219.575417 -21480.484140  -9462.097266    176.321260                    
V 22    435.788782  12747.724500 -27992.983819      -.008594                    
P 23 -23672.790415  -1195.065610  12264.667173    376.593411                    
V 23  14144.828637  -6601.034526  26295.808797      -.011271                    
P 24  17880.682395  -1889.754167 -19398.961252    272.739114                    
V 24  16700.126305  18543.972840  13769.528171       .032724                    
P 26  26212.287108  -3848.865442  -4501.202164    -30.799977                    
V 26  -4432.986233   2613.512775 -31470.174206      -.041611                    
P 27  20876.229690  16521.541641     86.663070    136.437193                    
V 27  -1920.048980   1254.096182 -32049.153778       .032786                    
P 28 -12836.371930  19788.731533 -11437.725898    -20.023064                    
V 28   1143.936642 -15511.523212 -27299.550748       .008313                    
P 29  25753.445250  -3950.390000   5154.934189    106.999355                    
V 29  -5369.918632   4495.407173  30871.083506       .027179                    
P 30  15514.175073  -3426.890753  20888.492575    226.946092                    
V 30  -3595.617431  27232.275540   7063.692049       .034327                    
P 31   1188.358553 -17298.272726  20281.208741    -46.079677                    
V 31  19530.194346  16092.978541  12884.260383       .019582                    
P 32  -9490.541774 -15960.068235  19459.787652     68.429015                    
V 32   7807.575624 -22578.566433 -14655.287224      -.085860                    
EOF
